NORAD_CAT_ID,OBJECT_NAME,OBJECT_TYPE,EPOCH,MEAN_MOTION,ECCENTRICITY,INCLINATION,RA_OF_ASC_NODE,ARG_OF_PERICENTER,MEAN_ANOMALY,BSTAR,MEAN_MOTION_DOT,MEAN_MOTION_DDOT,TLE_LINE0,TLE_LINE1,TLE_LINE2,SEMIMAJOR_AXIS,PERIOD,APOGEE,PERIGEE,DECAYED
52554.0,STARLINK-3770,PAYLOAD,2022-05-29 14:00:01,15.63061548,0.0001938,53.2175,215.7579,22.8211,126.2384,-0.0098409,-0.00836872,0.0,0 STARLINK-3770,1 52554U 22051X   22149.58334491 -.00836872  00000-0 -98409-2 0  9994,2 52554  53.2175 215.7579 0001938  22.8211 126.2384 15.63061548  1308,6756.956,92.127,380.131,377.512,0.0
52554.0,STARLINK-3770,PAYLOAD,2022-05-29 20:00:01,15.62615673,0.0001633,53.2172,214.5369,37.0492,79.3657,-0.010034,-0.00838232,0.0,0 STARLINK-3770,1 52554U 22051X   22149.83334491 -.00838232  00000-0 -10034-1 0  9991,2 52554  53.2172 214.5369 0001633  37.0492  79.3657 15.62615673  3047,6758.2419999999975,92.153,381.21,379.003,0.0
52554.0,STARLINK-3770,PAYLOAD,2022-05-29 21:02:22,15.6302226,4.6e-05,53.2194,214.3499,26.7926,333.3113,-0.0019565,-0.00177628,0.0,0 STARLINK-3770,1 52554U 22051X   22149.87664431 -.00177628  00000-0 -19565-2 0  9999,2 52554  53.2194 214.3499 0000460  26.7926 333.3113 15.63022260  2984,6757.07,92.129,379.246,378.624,0.0
52554.0,STARLINK-3770,PAYLOAD,2022-05-30 14:00:01,15.61274455,0.0001481,53.2175,210.8835,37.4425,338.6216,-0.010554,-0.00836713,0.0,0 STARLINK-3770,1 52554U 22051X   22150.58334491 -.00836713  00000-0 -10554-1 0  9994,2 52554  53.2175 210.8835 0001481  37.4425 338.6216 15.61274455  1305,6762.111999999999,92.232,384.978,382.975,0.0
52554.0,STARLINK-3770,PAYLOAD,2022-05-30 22:00:00,15.6067848,0.0001398,53.2175,209.2598,42.2457,48.056,-0.010786,-0.00835636,0.0,0 STARLINK-3770,1 52554U 22051X   22150.91667824 -.00835636  00000-0 -10786-1 0  9990,2 52554  53.2175 209.2598 0001398  42.2457  48.0560 15.60678480  3210,6763.833000000001,92.268,386.644,384.752,0.0
52554.0,STARLINK-3770,PAYLOAD,2022-05-31 03:45:46,15.6091782,0.0003402,53.2185,208.1187,33.4922,326.6307,-0.0039221,-0.00322068,0.0,0 STARLINK-3770,1 52554U 22051X   22151.15678784 -.00322068  00000-0 -39221-2 0  9990,2 52554  53.2185 208.1187 0003402  33.4922 326.6307 15.60917820  3252,6763.142,92.253,387.307,382.706,0.0
52554.0,STARLINK-3770,PAYLOAD,2022-05-31 06:00:02,15.60082798,0.0001776999999999,53.2177,207.6393,37.2513,126.6363,-0.011032,-0.00835378,0.0,0 STARLINK-3770,1 52554U 22051X   22151.25002315 -.00835378  00000-0 -11032-1 0  9994,2 52554  53.2177 207.6393 0001777  37.2513 126.6363 15.60082798  1308,6765.555,92.303,388.622,386.217,0.0
52554.0,STARLINK-3770,PAYLOAD,2022-05-31 12:59:19,15.60269671,2.08e-05,53.2187,206.2479,76.6115,283.4923,-0.0036643,-0.00294339,0.0,0 STARLINK-3770,1 52554U 22051X   22151.54119726 -.00294339  00000-0 -36643-2 0  9993,2 52554  53.2187 206.2479 0000208  76.6115 283.4923 15.60269671  3316,6765.014,92.292,387.02,386.739,0.0
52554.0,STARLINK-3770,PAYLOAD,2022-05-31 22:00:00,15.58893113,0.0001492,53.2176,204.4025,39.1441,269.5722,-0.011589,-0.00838116,0.0,0 STARLINK-3770,1 52554U 22051X   22151.91667824 -.00838116  00000-0 -11589-1 0  9999,2 52554  53.2176 204.4025 0001492  39.1441 269.5722 15.58893113  3372,6768.996,92.373,391.871,389.851,0.0
52554.0,STARLINK-3770,PAYLOAD,2022-06-01 20:00:01,15.57254292,0.0001665999999999,53.2174,199.962,30.9992,22.2717,-0.0123069999999999,-0.00836612,0.0,0 STARLINK-3770,1 52554U 22051X   22152.83334491 -.00836612  00000-0 -12307-1 0  9990,2 52554  53.2174 199.9620 0001666  30.9992  22.2717 15.57254292  3514,6773.745,92.47,396.73800000000006,394.481,0.0
52554.0,STARLINK-3770,PAYLOAD,2022-06-02 17:20:51,15.56333204,0.000224,53.217,195.6767,14.6795,345.4283,-0.0060275,-0.00411126,0.0,0 STARLINK-3770,1 52554U 22051X   22153.72281689 -.00411126  00000-0 -60275-2 0  9996,2 52554  53.2170 195.6767 0002240  14.6795 345.4283 15.56333204  3657,6776.417,92.525,399.8,396.764,0.0
52554.0,STARLINK-3770,PAYLOAD,2022-06-03 07:13:41,15.55533583,0.0001736,53.2182,192.8889,128.5981,231.5187,-0.0044591,-0.00299456,0.0,0 STARLINK-3770,1 52554U 22051X   22154.30117312 -.00299456  00000-0 -44591-2 0  9995,2 52554  53.2182 192.8889 0001736 128.5981 231.5187 15.55533583  3744,6778.739000000001,92.573,401.781,399.427,0.0
52554.0,STARLINK-3770,PAYLOAD,2022-06-03 14:56:42,15.54710807,0.0002114,53.2178,191.3406,15.5362,344.5714,-0.0067118,-0.00430046,0.0,0 STARLINK-3770,1 52554U 22051X   22154.62271780 -.00430046  00000-0 -67118-2 0  9992,2 52554  53.2178 191.3406 0002114  15.5362 344.5714 15.54710807  3798,6781.13,92.622,404.429,401.562,0.0
52554.0,STARLINK-3770,PAYLOAD,2022-06-04 10:59:48,15.55419943,0.0009637,53.2189,187.3184,318.6106,41.4175,0.0024066,0.00170201,0.0,0 STARLINK-3770,1 52554U 22051X   22155.45820548  .00170201  00000-0  24066-2 0  9993,2 52554  53.2189 187.3184 0009637 318.6106  41.4175 15.55419943  3925,6779.069,92.579,407.467,394.401,0.0
52554.0,STARLINK-3770,PAYLOAD,2022-06-05 22:00:00,15.49900253,0.0001839,53.2173,180.3119,35.8393,188.3234,-0.0005867,-0.00033627,0.0,0 STARLINK-3770,1 52554U 22051X   22156.91667824 -.00033627  00000-0 -58670-3 0  9992,2 52554  53.2173 180.3119 0001839  35.8393 188.3234 15.49900253  4145,6795.155,92.909,418.269,415.77,0.0
52554.0,STARLINK-3770,PAYLOAD,2022-06-06 06:00:00,15.50026039,0.0001841,53.2174,178.71900000000005,29.5481,255.5172,-0.014983,-0.00785965,0.0,0 STARLINK-3770,1 52554U 22051X   22157.25001157 -.00785965  00000-0 -14983-1 0  9997,2 52554  53.2174 178.7190 0001841  29.5481 255.5172 15.50026039  4205,6794.7869999999975,92.902,417.903,415.401,0.0
52554.0,STARLINK-3770,PAYLOAD,2022-06-06 14:00:01,15.49464768,0.0001395,53.2172,177.1246,42.8194,302.9903,-0.016302,-0.00833772,0.0,0 STARLINK-3770,1 52554U 22051X   22157.58334491 -.00833772  00000-0 -16302-1 0  9990,2 52554  53.2172 177.1246 0001395  42.8194 302.9903 15.49464768  1301,6796.428000000001,92.935,419.241,417.345,0.0
52554.0,STARLINK-3770,PAYLOAD,2022-06-06 22:00:00,15.4886691,0.0001776999999999,53.2174,175.5292,28.1256,17.7318,-0.016604,-0.00831699,0.0,0 STARLINK-3770,1 52554U 22051X   22157.91667824 -.00831699  00000-0 -16604-1 0  9997,2 52554  53.2174 175.5292 0001777  28.1256  17.7318 15.48866910  4304,6798.177,92.971,421.25,418.834,0.0
52554.0,STARLINK-3770,PAYLOAD,2022-06-07 14:00:01,15.47677136,0.0001774,53.2171,172.3483,38.3731,125.4251,-0.017355,-0.00833502,0.0,0 STARLINK-3770,1 52554U 22051X   22158.58334491 -.00833502  00000-0 -17355-1 0  9991,2 52554  53.2171 172.3483 0001774  38.3731 125.4251 15.47677136  1305,6801.66,93.043,424.732,422.319,0.0
52554.0,STARLINK-3770,PAYLOAD,2022-06-07 22:00:00,15.47080631,0.0001618,53.2173,170.7572,46.637,175.0603,-0.017688,-0.00832058,0.0,0 STARLINK-3770,1 52554U 22051X   22158.91667824 -.00832058  00000-0 -17688-1 0  9991,2 52554  53.2173 170.7572 0001618  46.6370 175.0603 15.47080631  4455,6803.408,93.079,426.374,424.173,0.0
52554.0,STARLINK-3770,PAYLOAD,2022-06-08 14:00:01,15.45891137,0.0001274999999999,53.2172,167.5849,54.9319,280.4114,-0.018495,-0.00834497,0.0,0 STARLINK-3770,1 52554U 22051X   22159.58334491 -.00834497  00000-0 -18495-1 0  9992,2 52554  53.2172 167.5849 0001275  54.9319 280.4114 15.45891137  1307,6806.898,93.15,429.631,427.895,0.0
52554.0,STARLINK-3770,PAYLOAD,2022-06-08 22:00:01,15.45292284,0.0001392,53.2173,165.9982,43.37,347.7906,-0.018779,-0.00830378,0.0,0 STARLINK-3770,1 52554U 22051X   22159.91668981 -.00830378  00000-0 -18779-1 0  9992,2 52554  53.2173 165.9982 0001392  43.3700 347.7906 15.45292284  4615,6808.656,93.186,431.469,429.574,0.0
52554.0,STARLINK-3770,PAYLOAD,2022-06-09 14:00:01,15.44102472,0.0001527,53.2171,162.8344,48.5906,91.857,-0.019598,-0.00831826,0.0,0 STARLINK-3770,1 52554U 22051X   22160.58334491 -.00831826  00000-0 -19598-1 0  9992,2 52554  53.2171 162.8344 0001527  48.5906  91.8570 15.44102472  1301,6812.154,93.258,435.059,432.978,0.0
52554.0,STARLINK-3770,PAYLOAD,2022-06-09 22:00:00,15.43507515,0.0001663,53.2171,161.2519,45.0527,148.9987,-0.020046,-0.00844434,0.0,0 STARLINK-3770,1 52554U 22051X   22160.91667824 -.00844434  00000-0 -20046-1 0  9997,2 52554  53.2171 161.2519 0001663  45.0527 148.9987 15.43507515  1302,6813.904,93.294,436.902,434.636,0.0
52554.0,STARLINK-3770,PAYLOAD,2022-06-10 00:00:00,15.43357263,0.0001515,53.2175,160.8571,47.6086,249.7316,-0.020053,-0.00829967,0.0,0 STARLINK-3770,1 52554U 22051X   22161.00001157 -.00829967  00000-0 -20053-1 0  9991,2 52554  53.2175 160.8571 0001515  47.6086 249.7316 15.43357263  4787,6814.346,93.303,437.244,435.179,0.0
52554.0,STARLINK-3770,PAYLOAD,2022-06-10 14:00:01,15.42317502,0.0001330999999999,53.2172,158.0961,57.0482,242.0602,-0.020917,-0.00846138,0.0,0 STARLINK-3770,1 52554U 22051X   22161.58334491 -.00846138  00000-0 -20917-1 0  9992,2 52554  53.2172 158.0961 0001331  57.0482 242.0602 15.42317502  1307,6817.408,93.366,440.181,438.366,0.0
52554.0,STARLINK-3770,PAYLOAD,2022-06-10 22:00:00,15.41717597,0.0001441999999999,53.2173,156.5182,43.2072,307.3593,-0.021163,-0.0083953,0.0,0 STARLINK-3770,1 52554U 22051X   22161.91667824 -.00839530  00000-0 -21163-1 0  9990,2 52554  53.2173 156.5182 0001442  43.2072 307.3593 15.41717597  4923,6819.177,93.402,442.025,440.059,0.0
52554.0,STARLINK-3770,PAYLOAD,2022-06-11 22:00:00,15.39932731,0.0001742,53.2174,151.7976,40.2099,100.4276,-0.022552,-0.00842705,0.0,0 STARLINK-3770,1 52554U 22051X   22162.91667824 -.00842705  00000-0 -22552-1 0  9992,2 52554  53.2174 151.7976 0001742  40.2099 100.4276 15.39932731  5074,6824.445,93.511,447.499,445.121,0.0
52554.0,STARLINK-3770,PAYLOAD,2022-06-12 14:00:01,15.38742494,0.0001605,53.2172,148.6587,49.0466,188.0589,-0.023507,-0.00844363,0.0,0 STARLINK-3770,1 52554U 22051X   22163.58334491 -.00844363  00000-0 -23507-1 0  9990,2 52554  53.2172 148.6587 0001605  49.0466 188.0589 15.38742494  1303,6827.964,93.583,450.925,448.733,0.0
